{
    "links": {
        "self": "http://www.neowsapp.com/rest/v1/neo/3741565?api_key=iIulBulltgU6a56xZRHN4H3l9WmuAYTsLGpBGhQ2"
    },
    "id": "3741565",
    "neo_reference_id": "3741565",
    "name": "(2016 CR29)",
    "designation": "2016 CR29",
    "nasa_jpl_url": "http://ssd.jpl.nasa.gov/sbdb.cgi?sstr=3741565",
    "absolute_magnitude_h": 21.8,
    "estimated_diameter": {
        "kilometers": {
            "estimated_diameter_min": 0.1160259082,
            "estimated_diameter_max": 0.2594418179
        },
        "meters": {
            "estimated_diameter_min": 116.0259082094,
            "estimated_diameter_max": 259.4418179074
        },
        "miles": {
            "estimated_diameter_min": 0.0720951346,
            "estimated_diameter_max": 0.1612096218
        },
        "feet": {
            "estimated_diameter_min": 380.6624406898,
            "estimated_diameter_max": 851.1870938635
        }
    },
    "is_potentially_hazardous_asteroid": false,
    "close_approach_data": [
        {
            "close_approach_date": "2012-02-17",
            "close_approach_date_full": "2012-Feb-17 22:55",
            "epoch_date_close_approach": 1329519300000,
            "relative_velocity": {
                "kilometers_per_second": "20.6274408679",
                "kilometers_per_hour": "74258.7871244112",
                "miles_per_hour": "46141.5224773876"
            },
            "miss_distance": {
                "astronomical": "0.3643843881",
                "lunar": "141.7455269709",
                "kilometers": "54511128.321013347",
                "miles": "33871644.4896523086"
            },
            "orbiting_body": "Earth"
        },
        {
            "close_approach_date": "2016-02-08",
            "close_approach_date_full": "2016-Feb-08 16:34",
            "epoch_date_close_approach": 1454949240000,
            "relative_velocity": {
                "kilometers_per_second": "17.7055236052",
                "kilometers_per_hour": "63739.8849788568",
                "miles_per_hour": "39605.4857525569"
            },
            "miss_distance": {
                "astronomical": "0.239707457",
                "lunar": "93.246200773",
                "kilometers": "35859724.99031659",
                "miles": "22282199.869645342"
            },
            "orbiting_body": "Earth"
        }
    ],
    "orbital_data": {
        "orbit_id": "20",
        "orbit_determination_date": "2017-04-06 08:28:41",
        "first_observation_date": "2016-02-03",
        "last_observation_date": "2016-03-10",
        "data_arc_in_days": 36,
        "observations_used": 117,
        "orbit_uncertainty": "6",
        "minimum_orbit_intersection": ".211333",
        "jupiter_tisserand_invariant": "3.084",
        "epoch_osculation": "2459000.5",
        "eccentricity": ".5288286400510733",
        "semi_major_axis": "2.492096766870404",
        "inclination": "31.97620000850842",
        "ascending_node_longitude": "324.9903301123951",
        "orbital_period": "1436.963641097467",
        "perihelion_distance": "1.174204622770651",
        "perihelion_argument": "157.9885337243549",
        "aphelion_distance": "3.809988910970156",
        "perihelion_time": "2458840.617022819822",
        "mean_anomaly": "40.0552040000852",
        "mean_motion": ".2505282595216213",
        "equinox": "J2000",
        "orbit_class": {
            "orbit_class_type": "AMO",
            "orbit_class_description": "Near-Earth asteroid orbits similar to that of 1221 Amor",
            "orbit_class_range": "1.017 AU < q (perihelion) < 1.3 AU"
        }
    },
    "is_sentry_object": false
}